LANDSAT 9               
1 49260U 21088A   24098.92227434  .00000494  00000+0  11956-3 0  9997
2 49260  98.1916 169.7163 0001408  84.2846 275.8512 14.57120680134467
